{
  "type": "FeatureCollection",
  "features": [
    {
      "type": "Feature",
      "properties": {
        "norad_id": 66802,
        "name": "STARLINK-35604",
        "group": "last-30-days",
        "lat": 19.512635042615052,
        "lon": -83.99388203158856,
        "alt_km": 302.7232254371229,
        "timestamp": "2025-12-12T11:38:30.170970+00:00",
        "meta_object_name": "STARLINK-35604",
        "meta_object_id": "2025-278M",
        "meta_epoch": "2025-12-12T02:28:02.188704",
        "meta_mean_motion": 15.89058129,
        "meta_eccentricity": 0.0002189,
        "meta_inclination": 42.9979,
        "meta_ra_of_asc_node": 256.0204,
        "meta_arg_of_pericenter": 291.8266,
        "meta_mean_anomaly": 68.2375,
        "meta_ephemeris_type": 0,
        "meta_classification_type": "U",
        "meta_norad_cat_id": 66802,
        "meta_element_set_no": 999,
        "meta_rev_at_epoch": 173,
        "meta_bstar": -0.0012457,
        "meta_mean_motion_dot": -0.00355618,
        "meta_mean_motion_ddot": 0,
        "tle_line1": "1 66802U 25278M   25346.10280311 -.00355618  00000+0 -12457-2 0  9992",
        "tle_line2": "2 66802  42.9979 256.0204 0002189 291.8266  68.2375 15.89058129  1737"
      },
      "geometry": {
        "type": "Point",
        "coordinates": [
          -83.99388203158856,
          19.512635042615052
        ]
      }
    },
    {
      "type": "Feature",
      "properties": {
        "norad_id": 66803,
        "name": "STARLINK-35565",
        "group": "last-30-days",
        "lat": 22.40404784595615,
        "lon": -80.0984382893214,
        "alt_km": 302.30569701662625,
        "timestamp": "2025-12-12T11:38:30.170980+00:00",
        "meta_object_name": "STARLINK-35565",
        "meta_object_id": "2025-278N",
        "meta_epoch": "2025-12-12T02:26:53.319264",
        "meta_mean_motion": 15.89117119,
        "meta_eccentricity": 0.000226,
        "meta_inclination": 42.9973,
        "meta_ra_of_asc_node": 256.0139,
        "meta_arg_of_pericenter": 288.019,
        "meta_mean_anomaly": 72.0438,
        "meta_ephemeris_type": 0,
        "meta_classification_type": "U",
        "meta_norad_cat_id": 66803,
        "meta_element_set_no": 999,
        "meta_rev_at_epoch": 173,
        "meta_bstar": -0.001206,
        "meta_mean_motion_dot": -0.00345719,
        "meta_mean_motion_ddot": 0,
        "tle_line1": "1 66803U 25278N   25346.10200601 -.00345719  00000+0 -12060-2 0  9998",
        "tle_line2": "2 66803  42.9973 256.0139 0002260 288.0190  72.0438 15.89117119  1731"
      },
      "geometry": {
        "type": "Point",
        "coordinates": [
          -80.0984382893214,
          22.40404784595615
        ]
      }
    },
    {
      "type": "Feature",
      "properties": {
        "norad_id": 66804,
        "name": "STARLINK-36038",
        "group": "last-30-days",
        "lat": 23.846163249961034,
        "lon": -78.04571436897963,
        "alt_km": 302.894184289863,
        "timestamp": "2025-12-12T11:38:30.170990+00:00",
        "meta_object_name": "STARLINK-36038",
        "meta_object_id": "2025-278P",
        "meta_epoch": "2025-12-12T03:56:45.953664",
        "meta_mean_motion": 15.88978852,
        "meta_eccentricity": 0.0001934,
        "meta_inclination": 42.9974,
        "meta_ra_of_asc_node": 255.6202,
        "meta_arg_of_pericenter": 263.0551,
        "meta_mean_anomaly": 97.0103,
        "meta_ephemeris_type": 0,
        "meta_classification_type": "U",
        "meta_norad_cat_id": 66804,
        "meta_element_set_no": 999,
        "meta_rev_at_epoch": 174,
        "meta_bstar": -0.00127,
        "meta_mean_motion_dot": -0.0036085,
        "meta_mean_motion_ddot": 0,
        "tle_line1": "1 66804U 25278P   25346.16442076 -.00360850  00000+0 -12700-2 0  9993",
        "tle_line2": "2 66804  42.9974 255.6202 0001934 263.0551  97.0103 15.88978852  1745"
      },
      "geometry": {
        "type": "Point",
        "coordinates": [
          -78.04571436897963,
          23.846163249961034
        ]
      }
    },
    {
      "type": "Feature",
      "properties": {
        "norad_id": 66805,
        "name": "STARLINK-36049",
        "group": "last-30-days",
        "lat": 26.45584979800684,
        "lon": -74.09601427992828,
        "alt_km": 303.5158715717107,
        "timestamp": "2025-12-12T11:38:30.171000+00:00",
        "meta_object_name": "STARLINK-36049",
        "meta_object_id": "2025-278Q",
        "meta_epoch": "2025-12-12T03:55:38.273088",
        "meta_mean_motion": 15.88983487,
        "meta_eccentricity": 0.0002774,
        "meta_inclination": 42.9973,
        "meta_ra_of_asc_node": 255.6134,
        "meta_arg_of_pericenter": 247.1655,
        "meta_mean_anomaly": 112.8927,
        "meta_ephemeris_type": 0,
        "meta_classification_type": "U",
        "meta_norad_cat_id": 66805,
        "meta_element_set_no": 999,
        "meta_rev_at_epoch": 174,
        "meta_bstar": -0.0017498,
        "meta_mean_motion_dot": -0.00490214,
        "meta_mean_motion_ddot": 0,
        "tle_line1": "1 66805U 25278Q   25346.16363742 -.00490214  00000+0 -17498-2 0  9993",
        "tle_line2": "2 66805  42.9973 255.6134 0002774 247.1655 112.8927 15.88983487  1740"
      },
      "geometry": {
        "type": "Point",
        "coordinates": [
          -74.09601427992828,
          26.45584979800684
        ]
      }
    },
    {
      "type": "Feature",
      "properties": {
        "norad_id": 66806,
        "name": "STARLINK-36069",
        "group": "last-30-days",
        "lat": 25.026027952506734,
        "lon": -76.2996839652459,
        "alt_km": 302.70171581958857,
        "timestamp": "2025-12-12T11:38:30.171012+00:00",
        "meta_object_name": "STARLINK-36069",
        "meta_object_id": "2025-278R",
        "meta_epoch": "2025-12-12T03:56:16.425600",
        "meta_mean_motion": 15.89002205,
        "meta_eccentricity": 0.0001897,
        "meta_inclination": 42.9976,
        "meta_ra_of_asc_node": 255.6184,
        "meta_arg_of_pericenter": 261.0363,
        "meta_mean_anomaly": 99.0296,
        "meta_ephemeris_type": 0,
        "meta_classification_type": "U",
        "meta_norad_cat_id": 66806,
        "meta_element_set_no": 999,
        "meta_rev_at_epoch": 174,
        "meta_bstar": -0.0012928,
        "meta_mean_motion_dot": -0.00367475,
        "meta_mean_motion_ddot": 0,
        "tle_line1": "1 66806U 25278R   25346.16407900 -.00367475  00000+0 -12928-2 0  9994",
        "tle_line2": "2 66806  42.9976 255.6184 0001897 261.0363  99.0296 15.89002205  1741"
      },
      "geometry": {
        "type": "Point",
        "coordinates": [
          -76.2996839652459,
          25.026027952506734
        ]
      }
    },
    {
      "type": "Feature",
      "properties": {
        "norad_id": 66807,
        "name": "STARLINK-36000",
        "group": "last-30-days",
        "lat": 29.18334025942724,
        "lon": -69.5609698747275,
        "alt_km": 301.1931784929875,
        "timestamp": "2025-12-12T11:38:30.171025+00:00",
        "meta_object_name": "STARLINK-36000",
        "meta_object_id": "2025-278S",
        "meta_epoch": "2025-12-12T02:23:59.015040",
        "meta_mean_motion": 15.89214605,
        "meta_eccentricity": 0.0002113,
        "meta_inclination": 42.9976,
        "meta_ra_of_asc_node": 255.9971,
        "meta_arg_of_pericenter": 292.5493,
        "meta_mean_anomaly": 67.5158,
        "meta_ephemeris_type": 0,
        "meta_classification_type": "U",
        "meta_norad_cat_id": 66807,
        "meta_element_set_no": 999,
        "meta_rev_at_epoch": 173,
        "meta_bstar": -0.001377,
        "meta_mean_motion_dot": -0.00394473,
        "meta_mean_motion_ddot": 0,
        "tle_line1": "1 66807U 25278S   25346.09998860 -.00394473  00000+0 -13770-2 0  9991",
        "tle_line2": "2 66807  42.9976 255.9971 0002113 292.5493  67.5158 15.89214605  1739"
      },
      "geometry": {
        "type": "Point",
        "coordinates": [
          -69.5609698747275,
          29.18334025942724
        ]
      }
    },
    {
      "type": "Feature",
      "properties": {
        "norad_id": 66808,
        "name": "STARLINK-36071",
        "group": "last-30-days",
        "lat": 30.282116323956625,
        "lon": -67.58605799756938,
        "alt_km": 301.51456609638717,
        "timestamp": "2025-12-12T11:38:30.171035+00:00",
        "meta_object_name": "STARLINK-36071",
        "meta_object_id": "2025-278T",
        "meta_epoch": "2025-12-12T03:53:57.351840",
        "meta_mean_motion": 15.89105993,
        "meta_eccentricity": 0.0001895,
        "meta_inclination": 42.9974,
        "meta_ra_of_asc_node": 255.6044,
        "meta_arg_of_pericenter": 272.2162,
        "meta_mean_anomaly": 87.8495,
        "meta_ephemeris_type": 0,
        "meta_classification_type": "U",
        "meta_norad_cat_id": 66808,
        "meta_element_set_no": 999,
        "meta_rev_at_epoch": 174,
        "meta_bstar": -0.0012736,
        "meta_mean_motion_dot": -0.00364082,
        "meta_mean_motion_ddot": 0,
        "tle_line1": "1 66808U 25278T   25346.16246935 -.00364082  00000+0 -12736-2 0  9993",
        "tle_line2": "2 66808  42.9974 255.6044 0001895 272.2162  87.8495 15.89105993  1749"
      },
      "geometry": {
        "type": "Point",
        "coordinates": [
          -67.58605799756938,
          30.282116323956625
        ]
      }
    }
  ]
}